[
  {
    "OBJECT_NAME": "GAOFEN-1",
    "OBJECT_ID": "2013-018A",
    "EPOCH": "2025-06-07T20:22:03.636480",
    "MEAN_MOTION": 14.76524944,
    "ECCENTRICITY": 0.001845,
    "INCLINATION": 97.9499,
    "RA_OF_ASC_NODE": 232.5939,
    "ARG_OF_PERICENTER": 35.554,
    "MEAN_ANOMALY": 324.6895,
    "EPHEMERIS_TYPE": 0,
    "CLASSIFICATION_TYPE": "U",
    "NORAD_CAT_ID": 39150,
    "ELEMENT_SET_NO": 999,
    "REV_AT_EPOCH": 65304,
    "BSTAR": 9.0334e-05,
    "MEAN_MOTION_DOT": 5.8e-06,
    "MEAN_MOTION_DDOT": 0
  },
  {
    "OBJECT_NAME": "VNREDSAT 1",
    "OBJECT_ID": "2013-021B",
    "EPOCH": "2025-06-07T20:35:48.997536",
    "MEAN_MOTION": 14.64927078,
    "ECCENTRICITY": 0.0001329,
    "INCLINATION": 97.9493,
    "RA_OF_ASC_NODE": 220.5529,
    "ARG_OF_PERICENTER": 99.8103,
    "MEAN_ANOMALY": 260.325,
    "EPHEMERIS_TYPE": 0,
    "CLASSIFICATION_TYPE": "U",
    "NORAD_CAT_ID": 39160,
    "ELEMENT_SET_NO": 999,
    "REV_AT_EPOCH": 64550,
    "BSTAR": 0.00011142,
    "MEAN_MOTION_DOT": 5.5e-06,
    "MEAN_MOTION_DDOT": 0
  },
  {
    "OBJECT_NAME": "ARIRANG-5 (KOMPSAT-5)",
    "OBJECT_ID": "2013-042A",
    "EPOCH": "2025-06-07T18:58:03.724032",
    "MEAN_MOTION": 15.04529592,
    "ECCENTRICITY": 0.000238,
    "INCLINATION": 97.6202,
    "RA_OF_ASC_NODE": 345.7194,
    "ARG_OF_PERICENTER": 20.5295,
    "MEAN_ANOMALY": 339.6026,
    "EPHEMERIS_TYPE": 0,
    "CLASSIFICATION_TYPE": "U",
    "NORAD_CAT_ID": 39227,
    "ELEMENT_SET_NO": 999,
    "REV_AT_EPOCH": 64762,
    "BSTAR": 0.00013003,
    "MEAN_MOTION_DOT": 1.761e-05,
    "MEAN_MOTION_DDOT": 0
  },
  {
    "OBJECT_NAME": "SKYSAT-A",
    "OBJECT_ID": "2013-066C",
    "EPOCH": "2025-06-07T10:17:39.795648",
    "MEAN_MOTION": 15.10008637,
    "ECCENTRICITY": 0.002343,
    "INCLINATION": 97.4349,
    "RA_OF_ASC_NODE": 214.2565,
    "ARG_OF_PERICENTER": 163.6127,
    "MEAN_ANOMALY": 196.5866,
    "EPHEMERIS_TYPE": 0,
    "CLASSIFICATION_TYPE": "U",
    "NORAD_CAT_ID": 39418,
    "ELEMENT_SET_NO": 999,
    "REV_AT_EPOCH": 63187,
    "BSTAR": 0.00018148,
    "MEAN_MOTION_DOT": 2.904e-05,
    "MEAN_MOTION_DDOT": 0
  },
  {
    "OBJECT_NAME": "DUBAISAT-2",
    "OBJECT_ID": "2013-066D",
    "EPOCH": "2025-06-07T21:30:25.537824",
    "MEAN_MOTION": 15.06361889,
    "ECCENTRICITY": 0.0010551,
    "INCLINATION": 97.4317,
    "RA_OF_ASC_NODE": 155.5268,
    "ARG_OF_PERICENTER": 231.5142,
    "MEAN_ANOMALY": 128.514,
    "EPHEMERIS_TYPE": 0,
    "CLASSIFICATION_TYPE": "U",
    "NORAD_CAT_ID": 39419,
    "ELEMENT_SET_NO": 999,
    "REV_AT_EPOCH": 62997,
    "BSTAR": 0.00016704,
    "MEAN_MOTION_DOT": 2.401e-05,
    "MEAN_MOTION_DDOT": 0
  },
  {
    "OBJECT_NAME": "GPM-CORE",
    "OBJECT_ID": "2014-009C",
    "EPOCH": "2025-06-07T13:24:42.820416",
    "MEAN_MOTION": 15.45181126,
    "ECCENTRICITY": 0.0013528,
    "INCLINATION": 64.9752,
    "RA_OF_ASC_NODE": 123.0129,
    "ARG_OF_PERICENTER": 268.6621,
    "MEAN_ANOMALY": 91.297,
    "EPHEMERIS_TYPE": 0,
    "CLASSIFICATION_TYPE": "U",
    "NORAD_CAT_ID": 39574,
    "ELEMENT_SET_NO": 999,
    "REV_AT_EPOCH": 63994,
    "BSTAR": 0.00014621,
    "MEAN_MOTION_DOT": 6.742e-05,
    "MEAN_MOTION_DDOT": 0
  },
  {
    "OBJECT_NAME": "SENTINEL-1A",
    "OBJECT_ID": "2014-016A",
    "EPOCH": "2025-06-07T19:55:54.812928",
    "MEAN_MOTION": 14.59199702,
    "ECCENTRICITY": 0.0001364,
    "INCLINATION": 98.1788,
    "RA_OF_ASC_NODE": 166.7897,
    "ARG_OF_PERICENTER": 89.1723,
    "MEAN_ANOMALY": 270.9633,
    "EPHEMERIS_TYPE": 0,
    "CLASSIFICATION_TYPE": "U",
    "NORAD_CAT_ID": 39634,
    "ELEMENT_SET_NO": 999,
    "REV_AT_EPOCH": 59545,
    "BSTAR": -4.0081e-07,
    "MEAN_MOTION_DOT": -4.8e-07,
    "MEAN_MOTION_DDOT": 0
  },
  {
    "OBJECT_NAME": "KAZEOSAT 1",
    "OBJECT_ID": "2014-024A",
    "EPOCH": "2025-06-07T19:43:53.341824",
    "MEAN_MOTION": 14.42052894,
    "ECCENTRICITY": 0.0001287,
    "INCLINATION": 98.3595,
    "RA_OF_ASC_NODE": 234.739,
    "ARG_OF_PERICENTER": 99.4024,
    "MEAN_ANOMALY": 260.7311,
    "EPHEMERIS_TYPE": 0,
    "CLASSIFICATION_TYPE": "U",
    "NORAD_CAT_ID": 39731,
    "ELEMENT_SET_NO": 999,
    "REV_AT_EPOCH": 58465,
    "BSTAR": 6.4893e-05,
    "MEAN_MOTION_DOT": 1.7e-06,
    "MEAN_MOTION_DDOT": 0
  },
  {
    "OBJECT_NAME": "ALOS-2",
    "OBJECT_ID": "2014-029A",
    "EPOCH": "2025-06-07T20:36:55.733760",
    "MEAN_MOTION": 14.79471442,
    "ECCENTRICITY": 0.0001588,
    "INCLINATION": 97.9214,
    "RA_OF_ASC_NODE": 256.3948,
    "ARG_OF_PERICENTER": 96.3073,
    "MEAN_ANOMALY": 263.8319,
    "EPHEMERIS_TYPE": 0,
    "CLASSIFICATION_TYPE": "U",
    "NORAD_CAT_ID": 39766,
    "ELEMENT_SET_NO": 999,
    "REV_AT_EPOCH": 59626,
    "BSTAR": 0.00019417,
    "MEAN_MOTION_DOT": 1.399e-05,
    "MEAN_MOTION_DDOT": 0
  },
  {
    "OBJECT_NAME": "KAZEOSAT 2",
    "OBJECT_ID": "2014-033A",
    "EPOCH": "2025-06-07T21:25:52.764384",
    "MEAN_MOTION": 14.8469488,
    "ECCENTRICITY": 0.0010391,
    "INCLINATION": 97.5742,
    "RA_OF_ASC_NODE": 12.7092,
    "ARG_OF_PERICENTER": 112.7741,
    "MEAN_ANOMALY": 247.4573,
    "EPHEMERIS_TYPE": 0,
    "CLASSIFICATION_TYPE": "U",
    "NORAD_CAT_ID": 40010,
    "ELEMENT_SET_NO": 999,
    "REV_AT_EPOCH": 59341,
    "BSTAR": 6.6361e-05,
    "MEAN_MOTION_DOT": 5.12e-06,
    "MEAN_MOTION_DDOT": 0
  },
  {
    "OBJECT_NAME": "HODOYOSHI-4",
    "OBJECT_ID": "2014-033B",
    "EPOCH": "2025-06-07T19:19:49.232352",
    "MEAN_MOTION": 14.86744333,
    "ECCENTRICITY": 0.0025719,
    "INCLINATION": 97.553,
    "RA_OF_ASC_NODE": 356.9522,
    "ARG_OF_PERICENTER": 104.8666,
    "MEAN_ANOMALY": 255.5402,
    "EPHEMERIS_TYPE": 0,
    "CLASSIFICATION_TYPE": "U",
    "NORAD_CAT_ID": 40011,
    "ELEMENT_SET_NO": 999,
    "REV_AT_EPOCH": 59316,
    "BSTAR": 0.00014421,
    "MEAN_MOTION_DOT": 1.239e-05,
    "MEAN_MOTION_DDOT": 0
  },
  {
    "OBJECT_NAME": "DEIMOS-2",
    "OBJECT_ID": "2014-033D",
    "EPOCH": "2025-06-07T22:00:21.350592",
    "MEAN_MOTION": 14.9205261,
    "ECCENTRICITY": 0.0002244,
    "INCLINATION": 97.6348,
    "RA_OF_ASC_NODE": 40.7737,
    "ARG_OF_PERICENTER": 99.529,
    "MEAN_ANOMALY": 260.6183,
    "EPHEMERIS_TYPE": 0,
    "CLASSIFICATION_TYPE": "U",
    "NORAD_CAT_ID": 40013,
    "ELEMENT_SET_NO": 999,
    "REV_AT_EPOCH": 59475,
    "BSTAR": 0.00012841,
    "MEAN_MOTION_DOT": 1.249e-05,
    "MEAN_MOTION_DDOT": 0
  },
  {
    "OBJECT_NAME": "HODOYOSHI-3",
    "OBJECT_ID": "2014-033F",
    "EPOCH": "2025-06-07T17:55:13.350720",
    "MEAN_MOTION": 14.84005376,
    "ECCENTRICITY": 0.0034561,
    "INCLINATION": 97.6091,
    "RA_OF_ASC_NODE": 333.0274,
    "ARG_OF_PERICENTER": 145.4203,
    "MEAN_ANOMALY": 214.9269,
    "EPHEMERIS_TYPE": 0,
    "CLASSIFICATION_TYPE": "U",
    "NORAD_CAT_ID": 40015,
    "ELEMENT_SET_NO": 999,
    "REV_AT_EPOCH": 59208,
    "BSTAR": 0.00017165,
    "MEAN_MOTION_DOT": 1.392e-05,
    "MEAN_MOTION_DDOT": 0
  },
  {
    "OBJECT_NAME": "SPOT 7",
    "OBJECT_ID": "2014-034A",
    "EPOCH": "2025-06-07T19:50:50.648640",
    "MEAN_MOTION": 14.60457406,
    "ECCENTRICITY": 0.0001226,
    "INCLINATION": 98.1119,
    "RA_OF_ASC_NODE": 224.9885,
    "ARG_OF_PERICENTER": 84.9916,
    "MEAN_ANOMALY": 275.1425,
    "EPHEMERIS_TYPE": 0,
    "CLASSIFICATION_TYPE": "U",
    "NORAD_CAT_ID": 40053,
    "ELEMENT_SET_NO": 999,
    "REV_AT_EPOCH": 58250,
    "BSTAR": 9.8956e-05,
    "MEAN_MOTION_DOT": 4.34e-06,
    "MEAN_MOTION_DDOT": 0
  }
]