39150,GAOFEN-1,2013,97.53,1000.0,+,97.95,Active,1,LEO,PRC,China,Government,Earth Observation,Long March,1 39150U 13018A   25158.84865320  .00000580  00000+0  90334-4 0  9993,2 39150  97.9499 232.5939 0018450  35.5540 324.6895 14.76524944653041,14.76524944,0.001845,LEO
39160,VNREDSAT 1,2013,98.3,115.0,+,97.95,Active,1,LEO,French Guiana,Vietnam,Government,Earth Observation,Vega,1 39160U 13021B   25158.85820599  .00000550  00000+0  11142-3 0  9994,2 39160  97.9493 220.5529 0001329  99.8103 260.3250 14.64927078645508,14.64927078,0.0001329,LEO
39227,ARIRANG-5 (KOMPSAT-5),2013,95.71,1400.0,+,97.62,Active,1,LEO,Russia,South Korea,Commercial/Government,Earth Observation,Dnepr,1 39227U 13042A   25158.79032088  .00001761  00000+0  13003-3 0  9995,2 39227  97.6202 345.7194 0002380  20.5295 339.6026 15.04529592647626,15.04529592,0.000238,LEO
39418,SKYSAT-A,2013,95.36,-1.0,+,97.43,Active,1,LEO,Russia,USA,Commercial,Earth Observation,Dnepr,1 39418U 13066C   25158.42893282  .00002904  00000+0  18148-3 0  9999,2 39418  97.4349 214.2565 0023430 163.6127 196.5866 15.10008637631873,15.10008637,0.002343,LEO
39419,DUBAISAT-2,2013,95.59,300.0,+,97.43,Active,1,LEO,Russia,UAE,Government,Earth Observation,Dnepr,1 39419U 13066D   25158.89612891  .00002401  00000+0  16704-3 0  9994,2 39419  97.4317 155.5268 0010551 231.5142 128.5140 15.06361889629972,15.06361889,0.0010551,LEO
39574,GPM-CORE,2014,93.19,3850.0,+,64.98,Active,1,LEO,Japan,Japan,Government,Earth Observation,H2A,1 39574U 14009C   25158.55882894  .00006742  00000+0  14621-3 0  9997,2 39574  64.9752 123.0129 0013528 268.6621  91.2970 15.45181126639944,15.45181126,0.0013528,LEO
39634,SENTINEL-1A,2014,98.68,2300.0,+,98.18,Active,1,LEO,French Guiana,ESA,Government,Earth Observation,Soyuz,1 39634U 14016A   25158.83049552 -.00000048  00000+0 -40081-6 0  9996,2 39634  98.1788 166.7897 0001364  89.1723 270.9633 14.59199702595451,14.59199702,0.0001364,LEO
39731,KAZEOSAT 1,2014,99.86,830.0,+,98.36,Active,1,LEO,French Guiana,Kazakhstan,Government,Earth Observation,Vega,1 39731U 14024A   25158.82214516  .00000170  00000+0  64893-4 0  9995,2 39731  98.3595 234.7390 0001287  99.4024 260.7311 14.42052894584655,14.42052894,0.0001287,LEO
39766,ALOS-2,2014,97.33,2120.0,+,97.92,Active,1,LEO,Japan,Japan,Government,Earth Observation,H2A,1 39766U 14029A   25158.85897840  .00001399  00000+0  19417-3 0  9993,2 39766  97.9214 256.3948 0001588  96.3073 263.8319 14.79471442596265,14.79471442,0.0001588,LEO
40010,KAZEOSAT 2,2014,96.99,185.0,+,97.57,Active,1,LEO,Russia,Kazakhstan,Government,Earth Observation,Dnepr,1 40010U 14033A   25158.89297181  .00000512  00000+0  66361-4 0  9995,2 40010  97.5742  12.7092 0010391 112.7741 247.4573 14.84694880593415,14.8469488,0.0010391,LEO
40011,HODOYOSHI-4,2014,96.86,60.0,+,97.55,Active,1,LEO,Russia,Japan,Government,Technology Development,Dnepr,1 40011U 14033B   25158.80543093  .00001239  00000+0  14421-3 0  9999,2 40011  97.5530 356.9522 0025719 104.8666 255.5402 14.86744333593164,14.86744333,0.0025719,LEO
40013,DEIMOS-2,2014,96.51,310.0,+,97.63,Active,1,LEO,Russia,Spain,Government,Earth Observation,Dnepr,1 40013U 14033D   25158.91691378  .00001249  00000+0  12841-3 0  9998,2 40013  97.6348  40.7737 0002244  99.5290 260.6183 14.92052610594757,14.9205261,0.0002244,LEO
40015,HODOYOSHI-3,2014,97.03,60.0,+,97.61,Active,1,LEO,Russia,Japan,Government,Technology Development,Dnepr,1 40015U 14033F   25158.74668230  .00001392  00000+0  17165-3 0  9995,2 40015  97.6091 333.0274 0034561 145.4203 214.9269 14.84005376592089,14.84005376,0.0034561,LEO
40053,SPOT 7,2014,98.6,714.0,+,98.11,Active,1,LEO,India,Azerbaijan,Commercial,Earth Observation,PSLV,1 40053U 14034A   25158.82697510  .00000434  00000+0  98956-4 0  9994,2 40053  98.1119 224.9885 0001226  84.9916 275.1425 14.60457406582502,14.60457406,0.0001226,LEO
